OBJECT_NAME,OBJECT_ID,EPOCH,MEAN_MOTION,ECCENTRICITY,INCLINATION,RA_OF_ASC_NODE,ARG_OF_PERICENTER,MEAN_ANOMALY,EPHEMERIS_TYPE,CLASSIFICATION_TYPE,NORAD_CAT_ID,ELEMENT_SET_NO,REV_AT_EPOCH,BSTAR,MEAN_MOTION_DOT,MEAN_MOTION_DDOT
GUOWANG TEST OBJECT C,2026-120C,2026-06-05T01:22:07.572576,15.39445008,.0009336,54.9977,82.3496,301.6067,58.4050,0,U,69322,999,82,.53989E-3,.21135E-3,0
GUOWANG TEST OBJECT D,2026-120D,2026-06-04T15:59:40.712352,15.39704502,.00080029,55.0029,84.1123,301.7889,58.2360,0,U,69323,999,76,.80800046E-3,.32137E-3,0
QIANFAN-163,2026-121A,2026-06-05T03:52:14.554848,13.60350679,.0018924,89.0163,301.7321,222.8142,137.1542,0,U,69325,999,52,.17012E-4,.25E-6,0
QIANFAN-164,2026-121B,2026-06-05T03:51:37.886688,13.60503862,.0018309,89.0159,301.7316,224.2961,135.6732,0,U,69326,999,52,.16208E-3,.134E-5,0
SZ-22 MODULE,2025-272C,2026-06-04T22:45:01.755936,15.59719201,.0008356,41.4810,36.4880,350.2706,9.7969,0,U,69328,999,141,.27599E-3,.2247E-3,0
